ORBCOMM FM103           
1 40091U 14040F   24356.55440962  .00001580  00000+0  38049-3 0  9998
2 40091  47.0045 136.3656 0002545 205.6672 154.4087 14.57578874538180
ORBCOMM FM114           
1 41179U 15081A   24356.44548369  .00001464  00000+0  35481-3 0  9998
2 41179  47.0039  46.0443 0003206 264.2258  95.8262 14.57642211478530
ORBCOMM FM119           
1 41180U 15081B   24356.28689250  .00001507  00000+0  36479-3 0  9993
2 41180  47.0017 316.0342 0001858 315.2477  44.8258 14.57558301479768
ORBCOMM FM105           
1 41181U 15081C   24356.18610719  .00000711  00000+0  24719-3 0  9997
2 41181  47.0024 304.3235 0002183 257.1248 102.9388 14.44913922475003
ORBCOMM FM110           
1 41182U 15081D   24356.55851190  .00002094  00000+0  49127-3 0  9995
2 41182  47.0021  44.8865 0001293 350.8882   9.1980 14.57666425478424
ORBCOMM FM118           
1 41183U 15081E   24356.53862874  .00002110  00000+0  49549-3 0  9992
2 41183  47.0045  45.3633 0001660   2.0106 358.0786 14.57592382478603
ORBCOMM FM112           
1 41184U 15081F   24356.33233761  .00001996  00000+0  47084-3 0  9991
2 41184  46.9992 315.0005 0001963 299.2607  60.8082 14.57588409479710
ORBCOMM FM113           
1 41185U 15081G   24356.30974868  .00001761  00000+0  41976-3 0  9993
2 41185  47.0010 315.4112 0001846 318.8706  41.2039 14.57590502479694
